[{"OBJECT_NAME":"STARLINK-4377","OBJECT_ID":"2022-084AJ","EPOCH":"2026-03-09T17:32:45.229056","MEAN_MOTION":15.0125028,"ECCENTRICITY":0.00017874,"INCLINATION":97.6036,"RA_OF_ASC_NODE":130.2412,"ARG_OF_PERICENTER":133.258,"MEAN_ANOMALY":226.8794,"EPHEMERIS_TYPE":0,"CLASSIFICATION_TYPE":"U","NORAD_CAT_ID":53221,"ELEMENT_SET_NO":999,"REV_AT_EPOCH":19932,"BSTAR":-3.3090294e-5,"MEAN_MOTION_DOT":-4.83e-6,"MEAN_MOTION_DDOT":0},{"OBJECT_NAME":"COSMOS 2251 DEB","OBJECT_ID":"1993-036BUC","EPOCH":"2026-03-09T01:22:56.754912","MEAN_MOTION":14.94925122,"ECCENTRICITY":0.00400506,"INCLINATION":73.998,"RA_OF_ASC_NODE":322.714,"ARG_OF_PERICENTER":103.344,"MEAN_ANOMALY":257.2214,"EPHEMERIS_TYPE":0,"CLASSIFICATION_TYPE":"U","NORAD_CAT_ID":39546,"ELEMENT_SET_NO":999,"REV_AT_EPOCH":65725,"BSTAR":0.0016507429,"MEAN_MOTION_DOT":0.00018318,"MEAN_MOTION_DDOT":0}]
